[{"OBJECT_NAME":"STARLINK-33910","OBJECT_ID":"2025-095AC","EPOCH":"2026-03-09T07:23:38.674464","MEAN_MOTION":15.27571496,"ECCENTRICITY":0.00018629,"INCLINATION":42.9998,"RA_OF_ASC_NODE":178.0025,"ARG_OF_PERICENTER":141.8433,"MEAN_ANOMALY":218.2551,"EPHEMERIS_TYPE":0,"CLASSIFICATION_TYPE":"U","NORAD_CAT_ID":63916,"ELEMENT_SET_NO":999,"REV_AT_EPOCH":4772,"BSTAR":0.00098057048,"MEAN_MOTION_DOT":0.00026813,"MEAN_MOTION_DDOT":0},{"OBJECT_NAME":"TITAN 3C TRANSTAGE DEB","OBJECT_ID":"1965-082EY","EPOCH":"2026-03-09T01:33:52.493760","MEAN_MOTION":15.22433287,"ECCENTRICITY":0.00129834,"INCLINATION":32.0932,"RA_OF_ASC_NODE":327.1819,"ARG_OF_PERICENTER":169.7698,"MEAN_ANOMALY":190.323,"EPHEMERIS_TYPE":0,"CLASSIFICATION_TYPE":"U","NORAD_CAT_ID":1883,"ELEMENT_SET_NO":999,"REV_AT_EPOCH":25002,"BSTAR":0.00039349355,"MEAN_MOTION_DOT":9.436e-5,"MEAN_MOTION_DDOT":0}]
